H1 CPF  1  DLR 2022 08 01 10  7132 technosat            
H2  1704205 6203    42829 2022 08 01 00 00 00 2022 08 08 00 00 00    60 1 1  0 0 0
H9
10 0 59796   7200.000000  0       -991265.161      -6022060.684      -3359605.342
10 0 59796   7260.000000  0      -1045286.336      -5780696.110      -3745751.473
10 0 59796   7320.000000  0      -1092675.561      -5514493.242      -4115975.792
10 0 59796   7380.000000  0      -1133023.346      -5224648.494      -4468714.524
10 0 59796   7440.000000  0      -1165961.131      -4912460.513      -4802480.295
10 0 59796   7500.000000  0      -1191163.629      -4579323.953      -5115868.260
10 0 59796   7560.000000  0      -1208350.929      -4226722.876      -5407561.831
10 0 59796   7620.000000  0      -1217290.316      -3856223.789      -5676337.982
10 0 59796   7680.000000  0      -1217797.845      -3469468.384      -5921072.097
10 0 59796   7740.000000  0      -1209739.635      -3068165.999      -6140742.407
10 0 59796   7800.000000  0      -1193032.881      -2654085.813      -6334433.917
10 0 59796   7860.000000  0      -1167646.603      -2229048.887      -6501341.844
10 0 59796   7920.000000  0      -1133602.113      -1794920.072      -6640774.610
10 0 59796   7980.000000  0      -1090973.205      -1353599.803      -6752156.365
10 0 59796   8040.000000  0      -1039886.095       -907015.797      -6835029.075
10 0 59796   8100.000000  0       -980519.061       -457114.668      -6889054.155
10 0 59796   8160.000000  0       -913101.766         -5853.519      -6914013.553
10 0 59796   8220.000000  0       -837914.335        444808.360      -6909810.408
10 0 59796   8280.000000  0       -755286.178        892917.830      -6876469.356
10 0 59796   8340.000000  0       -665594.537       1336536.238      -6814136.285
10 0 59796   8400.000000  0       -569262.821       1773747.570      -6723077.635
10 0 59796   8460.000000  0       -466758.671       2202666.538      -6603679.364
10 0 59796   8520.000000  0       -358591.760       2621446.596      -6456445.417
10 0 59796   8580.000000  0       -245311.342       3028287.787      -6281995.778
10 0 59796   8640.000000  0       -127503.559       3421444.464      -6081064.028
10 0 59796   8700.000000  0         -5788.526       3799232.722      -5854494.380
10 0 59796   8760.000000  0        119182.747       4160037.525      -5603238.368
10 0 59796   8820.000000  0        246731.648       4502319.662      -5328351.143
10 0 59796   8880.000000  0        376155.443       4824622.422      -5030987.308
10 0 59796   8940.000000  0        506730.908       5125577.948      -4712396.311
10 0 59796   9000.000000  0        637718.148       5403913.218      -4373917.417
10 0 59796   9060.000000  0        768364.535       5658455.625      -4016974.268
10 0 59796   9120.000000  0        897908.750       5888138.113      -3643069.089
10 0 59796   9180.000000  0       1025584.922       6092003.900      -3253776.536
10 0 59796   9240.000000  0       1150626.849       6269210.730      -2850737.200
10 0 59796   9300.000000  0       1272272.264       6419034.627      -2435650.764
10 0 59796   9360.000000  0       1389767.133       6540873.119      -2010268.872
10 0 59796   9420.000000  0       1502369.944       6634247.904      -1576387.722
10 0 59796   9480.000000  0       1609355.996       6698806.949      -1135840.423
10 0 59796   9540.000000  0       1710021.626       6734325.965       -690489.144
10 0 59796   9600.000000  0       1803688.340       6740709.268       -242217.118
10 0 59796   9660.000000  0       1889706.829       6717990.036        207079.443
10 0 59796   9720.000000  0       1967460.862       6666329.968        655499.489
10 0 59796   9780.000000  0       2036371.037       6586018.357       1101145.303
10 0 59796   9840.000000  0       2095898.361       6477470.559       1542130.678
10 0 59796   9900.000000  0       2145547.636       6341225.843       1976589.031
10 0 59796   9960.000000  0       2184870.625       6177944.687       2402681.420
10 0 59796  10020.000000  0       2213468.989       5988405.523       2818604.420
10 0 59796  10080.000000  0       2230996.999       5773500.977       3222597.879
10 0 59796  10140.000000  0       2237163.963       5534233.496       3612952.503
10 0 59796  10200.000000  0       2231736.303       5271710.490       3988017.101
10 0 59796  10260.000000  0       2214539.397       4987139.120       4346205.629
10 0 59796  10320.000000  0       2185459.140       4681820.416       4686004.018
10 0 59796  10380.000000  0       2144443.100       4357142.955       5005976.386
10 0 59796  10440.000000  0       2091501.376       4014576.416       5304770.882
10 0 59796  10500.000000  0       2026707.206       3655664.838       5581125.215
10 0 59796  10560.000000  0       1950197.267       3282019.582       5833871.847
10 0 59796  10620.000000  0       1862171.640       2895312.028       6061942.803
10 0 59796  10680.000000  0       1762893.422       2497266.017       6264374.062
10 0 59796  10740.000000  0       1652688.030       2089650.092       6440309.480
10 0 59796  10800.000000  0       1531942.206       1674269.579       6589004.241
10 0 59796  10860.000000  0       1401102.685       1252958.581       6709827.832
10 0 59796  10920.000000  0       1260674.580        827571.930       6802266.530
10 0 59796  10980.000000  0       1111219.481        399977.151       6865925.479
10 0 59796  11040.000000  0        953353.267        -27953.585       6900530.403
10 0 59796  11100.000000  0        787743.607       -454351.639       6905928.905
10 0 59796  11160.000000  0        615107.165       -877360.081       6882091.153
10 0 59796  11220.000000  0        436206.558      -1295141.710       6829110.110
10 0 59796  11280.000000  0        251847.009      -1705887.022       6747201.288
10 0 59796  11340.000000  0         62872.776      -2107822.037       6636702.036
10 0 59796  11400.000000  0       -129836.684      -2499216.034       6498070.352
10 0 59796  11460.000000  0       -325370.731      -2878389.094       6331883.084
10 0 59796  11520.000000  0       -522791.725      -3243719.316       6138833.694
10 0 59796  11580.000000  0       -721139.418      -3593649.811       5919729.625
10 0 59796  11640.000000  0       -919435.496      -3926695.449       5675489.212
10 0 59796  11700.000000  0      -1116688.323      -4241449.352       5407138.233
10 0 59796  11760.000000  0      -1311897.885      -4536589.146       5115805.933
10 0 59796  11820.000000  0      -1504060.850      -4810882.867       4802720.539
10 0 59796  11880.000000  0      -1692175.702      -5063194.487       4469204.279
10 0 59796  11940.000000  0      -1875247.932      -5292489.039       4116667.929
10 0 59796  12000.000000  0      -2052295.296      -5497837.230       3746604.885
10 0 59796  12060.000000  0      -2222353.048      -5678419.526       3360584.842
10 0 59796  12120.000000  0      -2384479.144      -5833529.720       2960247.122
10 0 59796  12180.000000  0      -2537759.399      -5962578.000       2547293.659
10 0 59796  12240.000000  0      -2681312.545      -6065093.468       2123481.638
10 0 59796  12300.000000  0      -2814295.166      -6140726.089       1690615.852
10 0 59796  12360.000000  0      -2935906.491      -6189248.058       1250540.792
10 0 59796  12420.000000  0      -3045392.998      -6210554.545        805132.513
10 0 59796  12480.000000  0      -3142052.798      -6204663.826        356290.353
10 0 59796  12540.000000  0      -3225239.789      -6171716.837        -94071.495
10 0 59796  12600.000000  0      -3294367.532      -6111976.083       -544032.500
10 0 59796  12660.000000  0      -3348912.840      -6025823.930       -991674.347
10 0 59796  12720.000000  0      -3388419.046      -5913760.297      -1435089.463
10 0 59796  12780.000000  0      -3412498.927      -5776399.750      -1872389.481
10 0 59796  12840.000000  0      -3420837.292      -5614468.061      -2301713.577
10 0 59796  12900.000000  0      -3413193.172      -5428798.192      -2721236.683
10 0 59796  12960.000000  0      -3389401.624      -5220325.771      -3129177.462
10 0 59796  13020.000000  0      -3349375.115      -4990084.084      -3523806.021
10 0 59796  13080.000000  0      -3293104.520      -4739198.653      -3903451.316
10 0 59796  13140.000000  0      -3220659.723      -4468881.428      -4266508.224
10 0 59796  13200.000000  0      -3132189.826      -4180424.646      -4611444.292
10 0 59796  13260.000000  0      -3027922.968      -3875194.347      -4936806.105
10 0 59796  13320.000000  0      -2908165.757      -3554623.621      -5241225.245
10 0 59796  13380.000000  0      -2773302.336      -3220205.620      -5523423.833
10 0 59796  13440.000000  0      -2623793.063      -2873486.372      -5782219.649
10 0 59796  13500.000000  0      -2460172.826      -2516057.457      -6016530.798
10 0 59796  13560.000000  0      -2283048.976      -2149548.556      -6225379.977
10 0 59796  13620.000000  0      -2093098.911      -1775619.862      -6407898.201
10 0 59796  13680.000000  0      -1891067.344      -1395954.509      -6563328.037
10 0 59796  13740.000000  0      -1677763.293      -1012250.965      -6691026.391
10 0 59796  13800.000000  0      -1454056.765       -626215.465      -6790466.787
10 0 59796  13860.000000  0      -1220875.209       -239554.516      -6861241.203
10 0 59796  13920.000000  0       -979199.661        146032.500      -6903061.510
10 0 59796  13980.000000  0       -730060.601        528860.632      -6915760.460
10 0 59796  14040.000000  0       -474533.591        907266.610      -6899292.208
10 0 59796  14100.000000  0       -213734.698       1279615.918      -6853732.286
10 0 59796  14160.000000  0         51184.225       1644309.607      -6779277.224
10 0 59796  14220.000000  0        319040.506       1999791.053      -6676243.851
10 0 59796  14280.000000  0        588625.919       2344552.538      -6545068.020
10 0 59796  14340.000000  0        858712.086       2677141.527      -6386302.841
99
